GSAT0225 (GALILEO 29)   
1 59598U 24079A   26203.30402792 -.00000049  00000+0  00000+0 0  9990
2 59598  55.1403 100.0982 0000306 338.5943 199.0835  1.70474061 13919
GSAT0227 (GALILEO 30)   
1 59600U 24079C   26199.09194253 -.00000031  00000+0  00000+0 0  9995
2 59600  55.1327 100.2145 0002950  69.2435 290.8270  1.70473877 13896
GSAT0232 (GALILEO 32)   
1 61182U 24167A   26202.36717075  .00000065  00000+0  00000+0 0  9995
2 61182  55.1779 220.3751 0006379 233.5892 192.1922  1.70474219 11464
GSAT0226 (GALILEO 31)   
1 61183U 24167B   26202.99405729  .00000069  00000+0  00000+0 0  9999
2 61183  55.1766 220.3651 0003180 239.5530 302.2968  1.70474215 11440
GSAT0233 (GALILEO 33)   
1 67160U 25302A   26202.83917450 -.00000048  00000+0  00000+0 0  9992
2 67160  54.3554 101.1433 0001183 153.0567  30.2541  1.70474120  3713
GSAT0234 (GALILEO 34)   
1 67162U 25302C   26203.12668492 -.00000048  00000+0  00000+0 0  9996
2 67162  54.3576 101.1340 0001589 326.2968 213.5665  1.70474069  3776
